{
  "norad_id": 56727,
  "name": "IRIDIUM 177",
  "history": [
    {
      "epoch": "2026-04-11T11:09:04.709376Z",
      "apogee_km": 630.1691190892143,
      "perigee_km": 627.1337783332337,
      "latitude_deg": 8.006736583257801e-06,
      "longitude_deg": -6.476967798784243,
      "height_km": 631.7008901910903,
      "semi_major_axis_km": 7006.788448711224,
      "eccentricity": 0.0002166,
      "inclination_deg": 86.2012,
      "raan_deg": 0.4764,
      "arg_perigee_deg": 87.7305,
      "mean_anomaly_deg": 272.4164,
      "mean_motion_rev_day": 14.80213136
    },
    {
      "epoch": "2026-04-13T05:20:06.383040Z",
      "apogee_km": 630.1519147171666,
      "perigee_km": 627.1367565728115,
      "latitude_deg": 6.084336111908544e-05,
      "longitude_deg": 78.19993384368318,
      "height_km": 631.7158675968566,
      "semi_major_axis_km": 7006.781335644989,
      "eccentricity": 0.00021516,
      "inclination_deg": 86.2012,
      "raan_deg": 359.6427,
      "arg_perigee_deg": 88.5544,
      "mean_anomaly_deg": 271.5924,
      "mean_motion_rev_day": 14.8021539
    },
    {
      "epoch": "2026-04-14T15:24:23.717088Z",
      "apogee_km": 630.1505470913071,
      "perigee_km": 627.1278238448958,
      "latitude_deg": -7.891910995297178e-06,
      "longitude_deg": -74.94506050062127,
      "height_km": 631.7300641243331,
      "semi_major_axis_km": 7006.776185468101,
      "eccentricity": 0.0002157,
      "inclination_deg": 86.2009,
      "raan_deg": 358.9692,
      "arg_perigee_deg": 89.2915,
      "mean_anomaly_deg": 270.8553,
      "mean_motion_rev_day": 14.80217022
    },
    {
      "epoch": "2026-04-15T15:44:36.011904Z",
      "apogee_km": 630.1510234211819,
      "perigee_km": 627.1198936556193,
      "latitude_deg": 2.1632234008510817e-05,
      "longitude_deg": -81.4768598458451,
      "height_km": 631.7364886832851,
      "semi_major_axis_km": 7006.7724585384,
      "eccentricity": 0.0002163,
      "inclination_deg": 86.2009,
      "raan_deg": 358.4881,
      "arg_perigee_deg": 89.6777,
      "mean_anomaly_deg": 270.4692,
      "mean_motion_rev_day": 14.80218203
    },
    {
      "epoch": "2026-04-16T19:19:29.900352Z",
      "apogee_km": 630.1499972965848,
      "perigee_km": 627.1104616724342,
      "latitude_deg": 5.2263650006291756e-05,
      "longitude_deg": -136.87942833878543,
      "height_km": 631.7404365378695,
      "semi_major_axis_km": 7006.767229484509,
      "eccentricity": 0.0002169,
      "inclination_deg": 86.2007,
      "raan_deg": 357.9428,
      "arg_perigee_deg": 90.0251,
      "mean_anomaly_deg": 270.1219,
      "mean_motion_rev_day": 14.8021986
    },
    {
      "epoch": "2026-04-17T22:54:23.698944Z",
      "apogee_km": 630.1552463717353,
      "perigee_km": 627.0959536853115,
      "latitude_deg": -9.014362789439105e-06,
      "longitude_deg": 167.7183717846146,
      "height_km": 631.7486791009436,
      "semi_major_axis_km": 7006.762600028524,
      "eccentricity": 0.00021831,
      "inclination_deg": 86.2005,
      "raan_deg": 357.3975,
      "arg_perigee_deg": 90.5076,
      "mean_anomaly_deg": 269.6395,
      "mean_motion_rev_day": 14.80221327
    },
    {
      "epoch": "2026-04-18T15:07:51.758688Z",
      "apogee_km": 630.1606426372155,
      "perigee_km": 627.0846751469608,
      "latitude_deg": 5.612005702425331e-05,
      "longitude_deg": -76.63565440403673,
      "height_km": 631.7537807482546,
      "semi_major_axis_km": 7006.759658892088,
      "eccentricity": 0.0002195,
      "inclination_deg": 86.2004,
      "raan_deg": 357.0767,
      "arg_perigee_deg": 90.8056,
      "mean_anomaly_deg": 269.3417,
      "mean_motion_rev_day": 14.80222259
    },
    {
      "epoch": "2026-04-19T15:28:03.757152Z",
      "apogee_km": 630.1632272559818,
      "perigee_km": 627.0732481961459,
      "latitude_deg": -5.741787926108357e-05,
      "longitude_deg": -83.16622768499492,
      "height_km": 631.7561385352947,
      "semi_major_axis_km": 7006.755237726064,
      "eccentricity": 0.0002205,
      "inclination_deg": 86.2003,
      "raan_deg": 356.5956,
      "arg_perigee_deg": 91.0533,
      "mean_anomaly_deg": 269.094,
      "mean_motion_rev_day": 14.8022366
    },
    {
      "epoch": "2026-04-20T09:18:52.554528Z",
      "apogee_km": 630.1651448357525,
      "perigee_km": 627.0677394091272,
      "latitude_deg": -1.558831963121367e-05,
      "longitude_deg": 8.044705720029706,
      "height_km": 631.7621308557372,
      "semi_major_axis_km": 7006.753442122439,
      "eccentricity": 0.00022103,
      "inclination_deg": 86.2002,
      "raan_deg": 356.2428,
      "arg_perigee_deg": 91.3395,
      "mean_anomaly_deg": 268.8079,
      "mean_motion_rev_day": 14.80224229
    },
    {
      "epoch": "2026-04-21T16:08:27.524256Z",
      "apogee_km": 630.1705995170314,
      "perigee_km": 627.0483932782363,
      "latitude_deg": -1.3044819000316988e-05,
      "longitude_deg": -96.22659888727334,
      "height_km": 631.7682461720173,
      "semi_major_axis_km": 7006.746496397634,
      "eccentricity": 0.0002228,
      "inclination_deg": 86.1999,
      "raan_deg": 355.6332,
      "arg_perigee_deg": 91.8095,
      "mean_anomaly_deg": 268.3381,
      "mean_motion_rev_day": 14.8022643
    },
    {
      "epoch": "2026-04-22T18:06:00.072000Z",
      "apogee_km": 630.1778742616234,
      "perigee_km": 627.0332482001422,
      "latitude_deg": 6.160124823723376e-06,
      "longitude_deg": -127.19151584182634,
      "height_km": 631.7694127175472,
      "semi_major_axis_km": 7006.7425612308825,
      "eccentricity": 0.0002244,
      "inclination_deg": 86.1998,
      "raan_deg": 355.12,
      "arg_perigee_deg": 91.9837,
      "mean_anomaly_deg": 268.1641,
      "mean_motion_rev_day": 14.80227677
    },
    {
      "epoch": "2026-04-23T02:12:43.961472Z",
      "apogee_km": 630.1778614631712,
      "perigee_km": 627.0283317897365,
      "latitude_deg": -3.385124286189084e-05,
      "longitude_deg": 110.63205208624237,
      "height_km": 631.7675561258402,
      "semi_major_axis_km": 7006.740096626453,
      "eccentricity": 0.00022475,
      "inclination_deg": 86.1998,
      "raan_deg": 354.9596,
      "arg_perigee_deg": 92.0027,
      "mean_anomaly_deg": 268.1451,
      "mean_motion_rev_day": 14.80228458
    },
    {
      "epoch": "2026-04-24T18:46:23.246400Z",
      "apogee_km": 630.180534129393,
      "perigee_km": 627.0078862374221,
      "latitude_deg": -1.6862742184109555e-05,
      "longitude_deg": -140.24951379447734,
      "height_km": 631.7691894814452,
      "semi_major_axis_km": 7006.731210183407,
      "eccentricity": 0.0002264,
      "inclination_deg": 86.1997,
      "raan_deg": 354.1575,
      "arg_perigee_deg": 92.3693,
      "mean_anomaly_deg": 267.7787,
      "mean_motion_rev_day": 14.80231274
    },
    {
      "epoch": "2026-04-25T17:29:13.899840Z",
      "apogee_km": 630.1812564070487,
      "perigee_km": 626.9931968839237,
      "latitude_deg": 6.074100778290471e-05,
      "longitude_deg": -122.34259863032035,
      "height_km": 631.7674474601681,
      "semi_major_axis_km": 7006.724226645486,
      "eccentricity": 0.0002275,
      "inclination_deg": 86.1995,
      "raan_deg": 353.7083,
      "arg_perigee_deg": 92.5475,
      "mean_anomaly_deg": 267.6007,
      "mean_motion_rev_day": 14.80233487
    },
    {
      "epoch": "2026-04-26T17:49:25.197600Z",
      "apogee_km": 630.1824468921932,
      "perigee_km": 626.9730912593668,
      "latitude_deg": -1.7045760998267755e-05,
      "longitude_deg": -128.87044074709578,
      "height_km": 631.753531418046,
      "semi_major_axis_km": 7006.71476907578,
      "eccentricity": 0.00022902,
      "inclination_deg": 86.1993,
      "raan_deg": 353.227,
      "arg_perigee_deg": 92.3718,
      "mean_anomaly_deg": 267.7765,
      "mean_motion_rev_day": 14.80236484
    },
    {
      "epoch": "2026-04-27T18:09:36.393408Z",
      "apogee_km": 630.1839855239587,
      "perigee_km": 626.9623002002718,
      "latitude_deg": -1.5974034304877732e-05,
      "longitude_deg": -135.39795132268432,
      "height_km": 631.7520081352067,
      "semi_major_axis_km": 7006.710142862115,
      "eccentricity": 0.0002299,
      "inclination_deg": 86.1992,
      "raan_deg": 352.7456,
      "arg_perigee_deg": 92.4737,
      "mean_anomaly_deg": 267.6747,
      "mean_motion_rev_day": 14.8023795
    },
    {
      "epoch": "2026-04-28T18:29:47.462208Z",
      "apogee_km": 630.1830571591518,
      "perigee_km": 626.9501641132047,
      "latitude_deg": -4.280578496103172e-06,
      "longitude_deg": -141.9248305661986,
      "height_km": 631.7504422948565,
      "semi_major_axis_km": 7006.703610636178,
      "eccentricity": 0.0002307,
      "inclination_deg": 86.1991,
      "raan_deg": 352.2643,
      "arg_perigee_deg": 92.6418,
      "mean_anomaly_deg": 267.5067,
      "mean_motion_rev_day": 14.8024002
    }
  ]
}